name, DUNS,email, url,verified,expiration,established,address1,address2, city, state,phone,fax,categories,disabled,woman,minority,image
1Cybersecurity LLC,80750233,david@1cs.business,http://www.1cs.business,15-Nov-18,15-Nov-21,2017,5150 Broadway Street,Unit 446,San Antonio ,TX,(210) 885-8935,(888) 864-4592,"['Information', 'Professional Scientific and Technical Services']",TRUE,FALSE,FALSE,https://vetbiz.va.gov/sdvosb_large.png
1i Apparel LLC,80315202,easton@1igroup.com,https://www.1iapparel.com,23-Feb-21,23-Feb-24,,8930 Four Winds Drive ,Suite 224,San Antonio ,TX,(210) 807-8777,(210) 853-0190,"['Manufacturing', 'Wholesale Trade']",TRUE,FALSE,FALSE,https://vetbiz.va.gov/sdvosb_large.png
1i Group LLC,78635597,easton@1igroup.com,https://1igroup.com,26-Aug-19,26-Aug-22,2012,12002 Warfield Street ,Suite 209,San Antonio ,TX,(210) 807-8777,(210) 853-0190,"['Manufacturing', 'Wholesale Trade']",TRUE,FALSE,TRUE,https://vetbiz.va.gov/sdvosb_large.png
3 Terra MP LLC,80758091,evondran@atei97.com,http://www.3TerraMP.com,21-Jun-18,21-Jun-21,2017,8626 Tesoro Drive,Suite 810  ,San Antonio ,TX,(210) 930-2834,(210) 930-2834,"['Mining', 'Health Care and Social Assistance', 'Professional Scientific and Technical Services']",TRUE,FALSE,FALSE,https://vetbiz.va.gov/sdvosb_large.png
4S Cyber Solutions LLC,80710279,info@4scybersolutions.com,http://www.4scybersolutions.com,25-Jul-18,25-Jul-21,2017,4910 Macey Trail, ,San Antonio ,TX,(844) 473-5338,(210) 301-1174,"['Wholesale Trade', 'Information', 'Professional Scientific and Technical Services', 'Administrative and Support and Waste Management and Remediation Services']",TRUE,FALSE,TRUE,https://vetbiz.va.gov/sdvosb_large.png
AATD LLC,42861498,vernon.putnam@aatdata.com,https://www.aatd-llc.com,27-Feb-20,27-Feb-23,2010,4818 West Lake Oaks, ,San Antonio ,TX,(210) 363-5427,(210) 277-7940,"['Educational Services', 'Other Services', 'Information', 'Professional Scientific and Technical Services']",TRUE,FALSE,TRUE,https://vetbiz.va.gov/sdvosb_large.png
Ace Co,88262522,bettydrennan@acecosa.com,https://www.acecosa.com,2-Oct-20,2-Oct-23,1995,2571 Mac Arthur View, ,San Antonio ,TX,(210) 494-2338,(210) 494-2338,"['Transportation and Warehousing', 'Construction', 'Agriculture Forestry Fishing and Hunting', 'Administrative and Support and Waste Management and Remediation Services']",TRUE,TRUE,FALSE,https://vetbiz.va.gov/sdvosb_large.png
Adams 1 and 1 Consulting Services LLC,81105997,ceo@adams1and1.com,,16-Jan-19,16-Jan-22,2018,12034 Poinciana Street, ,San Antonio ,TX,(210) 900-2736,,"['Professional Scientific and Technical Services', 'Administrative and Support and Waste Management and Remediation Services']",TRUE,FALSE,TRUE,https://vetbiz.va.gov/sdvosb_large.png
Adjuvant Consulting Inc.,168458110,fred.casillas@aci-sdvob.com,http://www.aci-sdvob.com,12-Apr-19,12-Apr-22,2005,10205 Oasis Street,Suite 220  ,San Antonio ,TX,(210) 829-8560,(210) 417-4110,"['Educational Services', 'Information', 'Professional Scientific and Technical Services', 'Administrative and Support and Waste Management and Remediation Services']",TRUE,FALSE,TRUE,https://vetbiz.va.gov/sdvosb_large.png
Adjuvant/Capital L.L.C.,79820666,fred.casillas@aci-sdvob.com,http://www.aci-sdvob.com,14-Dec-18,14-Dec-21,2015,10205 Oasis Street ,Suite 220,San Antonio ,TX,(210) 829-8560,(210) 417-4110,['Construction'],TRUE,FALSE,TRUE,https://vetbiz.va.gov/sdvosb_large.png
AegisMRO Inc.,117343473,darin@aegismro.com,http://www.aegismro.com,30-Mar-20,30-Mar-23,2019,702 Richland Hills Drive ,Unit 760671,San Antonio ,TX,(210) 409-3799,,['Wholesale Trade'],TRUE,FALSE,FALSE,https://vetbiz.va.gov/sdvosb_large.png
AETOS LLC,117052424,mnegrete@aetosllc.com,https://aetosllc.com,26-Aug-19,26-Aug-22,2019,5310 Statice Hunt, ,San Antonio ,TX,(210) 687-7230,,"['Information', 'Professional Scientific and Technical Services', 'Administrative and Support and Waste Management and Remediation Services']",TRUE,FALSE,TRUE,https://vetbiz.va.gov/sdvosb_large.png
Agentix Solutions LLC,117639619,sbyndom@agentixccc.com,,2-Mar-21,2-Mar-24,,20079 Stone Oak Parkway ,Suite 1105-481,San Antonio ,TX,(210) 201-3774,,"['Educational Services', 'Health Care and Social Assistance', 'Professional Scientific and Technical Services']",TRUE,FALSE,FALSE,https://vetbiz.va.gov/sdvosb_large.png
Alamo City Engineering Services Inc.,23601987,craig.stephens@aces.biz,http://www.aces.biz,5-Apr-19,5-Apr-22,2001,3463 Magic Drive,Suite 137   ,San Antonio ,TX,(210) 386-7340,,"['Professional Scientific and Technical Services', 'Wholesale Trade']",TRUE,FALSE,FALSE,https://vetbiz.va.gov/sdvosb_large.png
Alamo Integrated Systems Inc.,879389013,scottk@alamois.cm,http://www.alamois.com,28-Dec-20,28-Dec-23,,2805 S.W. Loop 410, ,San Antonio ,TX,(210) 674-8041,,"['Educational Services', 'Other Services', 'Professional Scientific and Technical Services', 'Administrative and Support and Waste Management and Remediation Services']",TRUE,FALSE,FALSE,https://vetbiz.va.gov/sdvosb_large.png
Alcazar Trades Inc.,610560513,ati06@satx.rr.com,,11-Jun-19,11-Jun-22,2002,4630 N. Loop 1604 W. ,Suite 512,San Antonio ,TX,(210) 732-1115,(210) 451-4817,['Administrative and Support and Waste Management and Remediation Services'],TRUE,FALSE,TRUE,https://vetbiz.va.gov/sdvosb_large.png
Aldow LLC,80980488,ceoaldow@gmail.com,http://www.aldowllc.com,21-Oct-20,21-Oct-23,2017,3535 Running Ranch, ,San Antonio ,TX,(210) 363-9333,,"['Construction', 'Mining', 'Professional Scientific and Technical Services']",TRUE,FALSE,TRUE,https://vetbiz.va.gov/sdvosb_large.png
ALPHA Facilities Solutions LLC,806134339,kgarcia@alphafacilities.com,http://alphafacilities.com,5-Apr-19,5-Apr-22,2007,11503 N.W. Military Highway,Suite 300,San Antonio ,TX,(210) 601-3190,(210) 404-9841,"['Professional Scientific and Technical Services', 'Administrative and Support and Waste Management and Remediation Services']",TRUE,FALSE,TRUE,https://vetbiz.va.gov/sdvosb_large.png
Alpha One Dev LLC,23439232,pedro@alphaonedev.com,http://alphaonedev.com,28-Jun-19,28-Jun-22,2018,7318 Bella GaRoaden, ,San Antonio ,TX,(210) 274-4350,,"['Information', 'Manufacturing', 'Professional Scientific and Technical Services', 'Other Services', 'Construction']",TRUE,FALSE,FALSE,https://vetbiz.va.gov/sdvosb_large.png
Alpha Terra Engineering Inc.,88204169,evondran@atei97.com,http://www.atei97.com,14-Aug-18,14-Aug-21,1997,2627 Pebble Row, ,San Antonio ,TX,(210) 326-6991,,"['Health Care and Social Assistance', 'Professional Scientific and Technical Services', 'Administrative and Support and Waste Management and Remediation Services']",TRUE,FALSE,FALSE,https://vetbiz.va.gov/sdvosb_large.png
AppddictionStudio Limited Liability Company,968907076,tporter@appddictionstudio.com,http://www.appddictionstudio.com,12-Feb-19,12-Feb-22,2011,14802 Jones Maltsberger Road ,Suite 2202,San Antonio ,TX,(210) 859-9677,(210) 570-7936,"['Information', 'Wholesale Trade', 'Manufacturing', 'Administrative and Support and Waste Management and Remediation Services', 'Retail Trade', 'Professional Scientific and Technical Services', 'Educational Services', 'Other Services', 'Health Care and Social Assistance']",TRUE,FALSE,TRUE,https://vetbiz.va.gov/sdvosb_large.png
ARA Government Services LLC,116926602,info@ara-gs.com,https://www.ara-gs.com,7-Aug-19,7-Aug-22,2018,6531 Fm 78 Suite 110, ,San Antonio ,TX,(210) 812-7027,(210) 729-7330,"['Educational Services', 'Professional Scientific and Technical Services', 'Finance and Insurance', 'Administrative and Support and Waste Management and Remediation Services']",TRUE,FALSE,TRUE,https://vetbiz.va.gov/sdvosb_large.png
Arber Inc,5075325,corporate@arberinc.com,http://www.arberinc.com,6-Apr-20,6-Apr-23,2000,1716 S. San Marcos ,Unit 120,San Antonio ,TX,(210) 736-6200,(210) 231-0301,['Administrative and Support and Waste Management and Remediation Services'],TRUE,FALSE,FALSE,https://vetbiz.va.gov/sdvosb_large.png
ARGIS Tech LLC,117702724,support@argistech.com,http://www.argistech.com,18-Nov-20,18-Nov-23,,24245 Wilderness Oak ,Unit 2206,San Antonio ,TX,(210) 816-1074,,['Professional Scientific and Technical Services'],TRUE,FALSE,FALSE,https://vetbiz.va.gov/sdvosb_large.png
Armogan Solutions LLC,80191496,karen.krause@armogansolutions.com,http://www.armogansolutions.com,27-Oct-20,27-Oct-23,2015,205 College BoulevaRoad, ,San Antonio ,TX,(210) 388-3190,(210) 388-3190,['Professional Scientific and Technical Services'],TRUE,TRUE,FALSE,https://vetbiz.va.gov/sdvosb_large.png
Aseracon LLC,116944122,srg@aseracon.com,http://www.aseracon.com,26-Aug-19,26-Aug-22,2018,23020 S Fork, ,San Antonio ,TX,(210) 265-5559,,"['Accommodation and Food Services', 'Administrative and Support and Waste Management and Remediation Services', 'Transportation and Warehousing', 'Professional Scientific and Technical Services', 'Other Services']",TRUE,FALSE,TRUE,https://vetbiz.va.gov/sdvosb_large.png
Aspell Services Inc.,78710578,maurice@aspell.com,http://www.aspell.com,17-Jul-20,17-Jul-23,2012,247 Barbara Drive, ,San Antonio ,TX,(210) 767-3174,(210) 655-2338,"['Information', 'Wholesale Trade', 'Administrative and Support and Waste Management and Remediation Services', 'Professional Scientific and Technical Services', 'Finance and Insurance', 'Educational Services']",TRUE,FALSE,FALSE,https://vetbiz.va.gov/sdvosb_large.png
Aspire Therapy Services and Consultants Inc.,59417057,info@aspiremedicalstaffing.com,http://www.aspiretherapyservices.com,13-Feb-20,13-Feb-23,2011,1003 Becket,Suite 201  ,San Antonio ,TX,(210) 998-2330,(888) 254-9654,"['Educational Services', 'Health Care and Social Assistance', 'Administrative and Support and Waste Management and Remediation Services']",TRUE,FALSE,FALSE,https://vetbiz.va.gov/sdvosb_large.png
AUNINC Technology Solutions LLC,117703718,customerservice@auninc.com,,2-Feb-21,2-Feb-24,,27019 Trinity Bend, ,San Antonio ,TX,(210) 913-0648,,"['Information', 'Wholesale Trade', 'Manufacturing', 'Retail Trade', 'Professional Scientific and Technical Services']",TRUE,TRUE,FALSE,https://vetbiz.va.gov/sdvosb_large.png
Auxilium Industries LLC,117189361,info@auxilium-ind.com,https://auxilium-ind.com,9-Jan-20,9-Jan-23,2019,1306 Range Field, ,San Antonio ,TX,(210) 571-4217,,"['Professional Scientific and Technical Services', 'Administrative and Support and Waste Management and Remediation Services']",TRUE,FALSE,FALSE,https://vetbiz.va.gov/sdvosb_large.png
Avenir Mission Solutions LLC,116724687,avenirmissionsolutions@gmail.com,https://www.avenirmissionsolutions.com,4-Feb-19,4-Feb-22,2018,3907 Grissom Grove, ,San Antonio ,TX,(210) 788-9996,,"['Educational Services', 'Professional Scientific and Technical Services']",TRUE,FALSE,TRUE,https://vetbiz.va.gov/sdvosb_large.png
Axiom Dynamix LLC,81123560,axiomdynamix@gvtc.com,,6-Aug-18,6-Aug-21,2018,26010 Dakota Chief, ,San Antonio ,TX,(210) 347-4811,(210) 347-4811,"['Educational Services', 'Health Care and Social Assistance', 'Professional Scientific and Technical Services', 'Administrative and Support and Waste Management and Remediation Services']",TRUE,FALSE,TRUE,https://vetbiz.va.gov/sdvosb_large.png
B&B Diagnostics LLC,60670850,barry@bbdiagnostics.com,http://www.bbdiagnostics.com,15-Jan-19,15-Jan-22,2010,227 N. Loop 1604 E. ,Suite 150,San Antonio ,TX,(210) 630-9931,,['Wholesale Trade'],TRUE,FALSE,TRUE,https://vetbiz.va.gov/sdvosb_large.png
Babco General Contractor LLC,85864776,shawn.babb@babco-gc.com,,13-Aug-19,13-Aug-22,2019,24850 Blanco Road ,Suite 101,San Antonio ,TX,(210) 669-7181,(210) 332-9665,['Construction'],TRUE,FALSE,FALSE,https://vetbiz.va.gov/sdvosb_large.png
Banta Medical Consulting Services LLC,79120003,brian.stark@bantamedicalservices.com,https://www.bantamedicalservices.com,1-May-19,1-May-22,2013,610 E. Market Street ,Unit 3113,San Antonio ,TX,(210) 665-0345,,"['Construction', 'Health Care and Social Assistance', 'Professional Scientific and Technical Services']",TRUE,FALSE,FALSE,https://vetbiz.va.gov/sdvosb_large.png
Billie Odell Stone,116373627,stobil10@aol.com,,31-May-19,31-May-22,1996,6353 Montgomery Drive, ,San Antonio ,TX,(210)842-6208,(210) 655-3975,"['Accommodation and Food Services', 'Information', 'Administrative and Support and Waste Management and Remediation Services', 'Transportation and Warehousing', 'Professional Scientific and Technical Services', 'Other Services', 'Health Care and Social Assistance']",TRUE,FALSE,TRUE,https://vetbiz.va.gov/sdvosb_large.png
BION Sol LLC,117855300,ezramendez.ceo@bionsoltexas.org,,13-May-21,13-May-24,,239 Antrim Drive, ,San Antonio ,TX,(512) 787-6173,,"['Accommodation and Food Services', 'Manufacturing', 'Administrative and Support and Waste Management and Remediation Services', 'Professional Scientific and Technical Services', 'Health Care and Social Assistance']",TRUE,FALSE,FALSE,https://vetbiz.va.gov/sdvosb_large.png
Blackstone Fuels Inc.,117551422,maxey@blackstonefuels.com,https://www.blackstonefuels.com,27-Jul-20,27-Jul-23,2020,1700 Jackson Keller Road, ,San Antonio ,TX,(210) 307-8882,,['Wholesale Trade'],TRUE,FALSE,FALSE,https://vetbiz.va.gov/sdvosb_large.png
Blueside Consultants LLC,98903603,bluesideconsultants@gmail.com,,8-Dec-20,8-Dec-23,,3331 Brooktree Court, ,San Antonio ,TX,(210) 870-9910,,"['Educational Services', 'Professional Scientific and Technical Services']",TRUE,FALSE,FALSE,https://vetbiz.va.gov/sdvosb_large.png
Bo Carrington and Associates LLC,831275917,bo@bcallc.net,https://bcallc.net,19-Sep-18,19-Sep-21,2006,1606 Braeburn Bend, ,San Antonio ,TX,(210) 216-1071,(210) 764-0544,"['Educational Services', 'Professional Scientific and Technical Services', 'Administrative and Support and Waste Management and Remediation Services']",TRUE,FALSE,FALSE,https://vetbiz.va.gov/sdvosb_large.png
Booker's Tree Service LLC,22102961,booker@bookerstreeservice.net,http://www.bookerstreeservice.net,1-Apr-20,1-Apr-23,1991,6515 Magic Oaks, ,San Antonio ,TX,(210) 657-8085,(210) 657-5678,"['Manufacturing', 'Construction', 'Administrative and Support and Waste Management and Remediation Services']",TRUE,FALSE,FALSE,https://vetbiz.va.gov/sdvosb_large.png
Britten Lift and Installation Services LLC,15193488,jbritten@britteninc.com,,16-Mar-20,16-Mar-23,2004,104 Chattington Court, ,San Antonio ,TX,(210) 710-1432,,"['Construction', 'Professional Scientific and Technical Services']",FALSE,FALSE,FALSE,https://vetbiz.va.gov/sdvosb_large.png
BTech Solutions LLC,81467275,rachell.l.bonds@gmail.com,,24-Feb-20,24-Feb-23,2018,12011 White River Drive, ,San Antonio ,TX,(803) 528-1487,,"['Educational Services', 'Professional Scientific and Technical Services', 'Administrative and Support and Waste Management and Remediation Services']",TRUE,TRUE,TRUE,https://vetbiz.va.gov/sdvosb_large.png
BTL Technologies Inc.,141234745,bkent@btltech.com,https://btltech.com,4-Sep-19,4-Sep-22,1999,1777 N.E. Loop 410,Suite 704  ,San Antonio ,TX,(210) 467-5033,(210) 467-5035,"['Administrative and Support and Waste Management and Remediation Services', 'Professional Scientific and Technical Services', 'Educational Services', 'Other Services', 'Construction', 'Health Care and Social Assistance']",TRUE,FALSE,TRUE,https://vetbiz.va.gov/sdvosb_large.png
Carrington Consortium LLC,963425157,pbradley@carringtonconsortium.com,http://carringtonconsortium.com,15-Jan-21,15-Jan-24,,1777 N.E. Loop 410 ,"Suite 600, Office 624",San Antonio ,TX,(210) 289-1199,,"['Educational Services', 'Health Care and Social Assistance', 'Professional Scientific and Technical Services', 'Administrative and Support and Waste Management and Remediation Services']",TRUE,TRUE,TRUE,https://vetbiz.va.gov/sdvosb_large.png
Chandler McKellar LLC,117814725,mhern1224@gmail.com,,5-Feb-21,5-Feb-24,,427 S. Saint Mary's Street, ,San Antonio ,TX,(913) 220-4866,,"['Manufacturing', 'Transportation and Warehousing', 'Retail Trade', 'Professional Scientific and Technical Services', 'Other Services', 'Health Care and Social Assistance']",TRUE,FALSE,FALSE,https://vetbiz.va.gov/sdvosb_large.png
Choe Enterprises Inc.,42545488,roscoe.sistrunk@gmail.com,,26-Jun-20,26-Jun-23,1995,115 E. Travis Street,Suite 601  ,San Antonio ,TX,(210) 837-2271,(210) 226-3156,"['Transportation and Warehousing', 'Administrative and Support and Waste Management and Remediation Services']",TRUE,FALSE,FALSE,https://vetbiz.va.gov/sdvosb_large.png
Coley & Associates Inc.,26814967,jcoley@coleyassociates.com,https://www.coleysolutions.com,3-Jan-19,3-Jan-22,2001,140 Heimer ,Suite 400,San Antonio ,TX,(210) 402-6766,(210) 402-6829,"['Information', 'Administrative and Support and Waste Management and Remediation Services', 'Professional Scientific and Technical Services', 'Educational Services', 'Health Care and Social Assistance']",TRUE,FALSE,FALSE,https://vetbiz.va.gov/sdvosb_large.png
Consolidated Installation Support LLC,790930296,joe@vetcis.com,http://www.vetcis.com,10-Feb-20,10-Feb-23,2007,6531 FM 78,Suite 110-496  ,San Antonio ,TX,(210) 387-0097,(210) 538-8316,"['Administrative and Support and Waste Management and Remediation Services', 'Transportation and Warehousing', 'Professional Scientific and Technical Services', 'Educational Services', 'Construction']",TRUE,FALSE,TRUE,https://vetbiz.va.gov/sdvosb_large.png
Contractors Corner LLC,831718833,agarcia@concorusa.com,http://www.concorusa.com,13-Mar-19,13-Mar-22,2009,9515 Maverick Point, ,San Antonio ,TX,(210) 462-3110,,"['Construction', 'Administrative and Support and Waste Management and Remediation Services']",TRUE,FALSE,TRUE,https://vetbiz.va.gov/sdvosb_large.png
Conzeto Industries LLC,42890790,mvoto@conzeto.com,http://conzeto.com,2-Nov-18,2-Nov-21,2010,4806 Dahlia Ter, ,San Antonio ,TX,(210) 900-0066,,"['Educational Services', 'Information', 'Professional Scientific and Technical Services']",TRUE,FALSE,TRUE,https://vetbiz.va.gov/sdvosb_large.png
CP2C3 LLC,967178703,jcaston@cp2c3.com,https://www.CP2C3.com,17-Sep-20,17-Sep-23,2011,1615 Mountain Cove, ,San Antonio ,TX,(210) 232-7322,,['Professional Scientific and Technical Services'],TRUE,FALSE,FALSE,https://vetbiz.va.gov/sdvosb_large.png
Crescendo Advisory Group LLC,115619927,cris.medina@crescendo.group,http://crescendo.group,13-Apr-20,13-Apr-23,2018,8209 Sterling Green Drive, ,San Antonio ,TX,(210) 216-7998,,"['Construction', 'Real Estate Rental and Leasing', 'Professional Scientific and Technical Services', 'Administrative and Support and Waste Management and Remediation Services']",TRUE,FALSE,FALSE,https://vetbiz.va.gov/sdvosb_large.png
Crew Dog Holdings LLC,81008873,info@crewdogelectronics.com,http://www.crewdogelectronics.com,17-Feb-21,17-Feb-24,2017,4940 Flipper Drive, ,San Antonio ,TX,(210) 920-0568,(210) 920-0568,['Wholesale Trade'],TRUE,FALSE,FALSE,https://vetbiz.va.gov/sdvosb_large.png
CRYPTO GLOBAL LOGISTICS LLC,117821870,kevinkabubei@gmail.com,,22-Mar-21,22-Mar-24,,5530 Southern Oaks, ,San Antonio ,TX,(210) 870-8242,,"['Transportation and Warehousing', 'Retail Trade', 'Information', 'Wholesale Trade']",TRUE,FALSE,FALSE,https://vetbiz.va.gov/sdvosb_large.png
Curativo Enterprises LLC,117564491,darina@curativohemp.com,,4-May-21,4-May-24,,5312 Carriage Cape, ,San Antonio ,TX,(737) 242-0701,,"['Information', 'Health Care and Social Assistance', 'Professional Scientific and Technical Services', 'Administrative and Support and Waste Management and Remediation Services']",TRUE,TRUE,FALSE,https://vetbiz.va.gov/sdvosb_large.png
CyberFenceIT LLC,78640437,charlesg@cyberfenceit.com,https://www.cyberfenceit.com,6-Feb-20,6-Feb-23,2012,2530 Portola View, ,San Antonio ,TX,(828) 273-8266,,['Professional Scientific and Technical Services'],TRUE,FALSE,TRUE,https://vetbiz.va.gov/sdvosb_large.png
CyberTech-Global LLC,117693522,operations@cybertech-global.com,,16-Feb-21,16-Feb-24,,10126 Wilderness Gap, ,San Antonio ,TX,(737) 241-8078,,"['Information', 'Arts Entertainment and Recreation', 'Administrative and Support and Waste Management and Remediation Services', 'Professional Scientific and Technical Services', 'Educational Services']",TRUE,FALSE,FALSE,https://vetbiz.va.gov/sdvosb_large.png
CYFOR Technologies LLC,962063827,sergio.muniz@cyfor.com,http://www.cyfor.com,1-Feb-19,1-Feb-22,2010,13750 San Pedro ,Suite 635,San Antonio ,TX,(210) 354-7522,(210) 354-7525,"['Manufacturing', 'Information', 'Professional Scientific and Technical Services']",TRUE,FALSE,TRUE,https://vetbiz.va.gov/sdvosb_large.png
Design Build Consortium LLC,79171715,javolio@designbcllc.com,http://designbcllc.com,21-Feb-19,21-Feb-22,2013,39 Amber Forest, ,San Antonio ,TX,(210) 410-0348,,"['Manufacturing', 'Utilities', 'Administrative and Support and Waste Management and Remediation Services', 'Professional Scientific and Technical Services', 'Educational Services', 'Other Services', 'Construction', 'Real Estate Rental and Leasing']",TRUE,FALSE,FALSE,https://vetbiz.va.gov/sdvosb_large.png
Dewkaf Solutions LLC,80208501,israel.adewole@dewkaf.com,http://www.dewkaf.com,5-Jul-19,5-Jul-22,2016,5926 Amber Rose, ,San Antonio ,TX,(210) 992-3030,,"['Information', 'Wholesale Trade', 'Manufacturing', 'Utilities', 'Administrative and Support and Waste Management and Remediation Services', 'Agriculture Forestry Fishing and Hunting', 'Transportation and Warehousing', 'Professional Scientific and Technical Services', 'Educational Services', 'Other Services', 'Construction', 'Mining']",TRUE,FALSE,TRUE,https://vetbiz.va.gov/sdvosb_large.png
Dgg Technology Services Limited Liability Company,80370868,gilbertsondg@gmail.com,http://virtualhealthinformatics.com,23-Oct-19,23-Oct-22,2016,710 Sentry Hill, ,San Antonio ,TX,(210) 251-9877,(210) 251-9877,"['Educational Services', 'Finance and Insurance', 'Professional Scientific and Technical Services', 'Administrative and Support and Waste Management and Remediation Services']",TRUE,FALSE,FALSE,https://vetbiz.va.gov/sdvosb_large.png
Digital Fire Team LLC,67545428,finance@digitalfireteam.com,https://www.digitalfireteam.com,25-Nov-19,25-Nov-22,2015,12116 N. North Loop Road, ,San Antonio ,TX,(210) 951-3324,,"['Other Services', 'Professional Scientific and Technical Services']",FALSE,FALSE,FALSE,https://vetbiz.va.gov/sdvosb_large.png
Dilligas Corp.,825454957,jgraves@usgotpeople.com,http://www.myusgp.com,16-Mar-20,16-Mar-23,2008,134 E. Mistletoe Avenue, ,San Antonio ,TX,(210) 223-1100,(866) 208-9875,"['Accommodation and Food Services', 'Information', 'Mining', 'Manufacturing', 'Administrative and Support and Waste Management and Remediation Services', 'Professional Scientific and Technical Services', 'Health Care and Social Assistance']",TRUE,FALSE,FALSE,https://vetbiz.va.gov/sdvosb_large.png
Donald L. Mooney Enterprises LLC,19732036,donmooney@nursesetc.net,https://www.nursesetc.net,25-Feb-19,25-Feb-22,2000,16302 Pleasantville Road ,Suite 211,San Antonio ,TX,(210) 566-9995,(210) 566-1862,"['Health Care and Social Assistance', 'Administrative and Support and Waste Management and Remediation Services']",TRUE,FALSE,TRUE,https://vetbiz.va.gov/sdvosb_large.png
DorSun Global LLC,80189514,david@dorsunautomation.com,http://www.DorSunAutomation.com,24-Apr-20,24-Apr-23,2016,15007 Pintail, ,San Antonio ,TX,(210) 900-5171,(210) 334-0189,['Construction'],TRUE,FALSE,FALSE,https://vetbiz.va.gov/sdvosb_large.png
Dynamic Advancement LLC,80519075,contracting@dynamicadvancement.com,http://www.dynamicadvancement.com,3-Dec-19,3-Dec-22,2017,5805 Callaghan Road  ,Suite 301,San Antonio ,TX,(210) 742-1506,,"['Educational Services', 'Health Care and Social Assistance', 'Administrative and Support and Waste Management and Remediation Services']",TRUE,FALSE,TRUE,https://vetbiz.va.gov/sdvosb_large.png
E Flow Electric Inc.,807782771,info@eflowsa.com,http://www.eflowsa.com,21-Jul-20,21-Jul-23,2007,4931 Enterprise ,Suite 2,San Antonio ,TX,(210) 465-9618,(210) 465-7071,"['Information', 'Wholesale Trade', 'Manufacturing', 'Professional Scientific and Technical Services', 'Construction']",TRUE,FALSE,TRUE,https://vetbiz.va.gov/sdvosb_large.png
Eagle One Solutions LLC,81233759,ssvabek@eagle1s.com,https://www.eagle1s.com,7-Mar-19,7-Mar-22,2018,7400 Blanco Road,Suite 260  ,San Antonio ,TX,(540) 428-6699,,"['Educational Services', 'Health Care and Social Assistance', 'Professional Scientific and Technical Services', 'Administrative and Support and Waste Management and Remediation Services']",TRUE,FALSE,FALSE,https://vetbiz.va.gov/sdvosb_large.png
Edwards Consulting Group LLC,81148932,tiffany@edwardscg.net,,26-Nov-18,26-Nov-21,2018,29051 San Clemente, ,San Antonio ,TX,(210) 627-0577,,"['Administrative and Support and Waste Management and Remediation Services', 'Professional Scientific and Technical Services', 'Educational Services', 'Other Services', 'Construction', 'Health Care and Social Assistance']",TRUE,TRUE,TRUE,https://vetbiz.va.gov/sdvosb_large.png
EmploYou LLC,4185407,info@seekinghr.com,https://www.seekinghr.com,3-May-21,3-May-24,2007,40 N.E. Loop 410 ,Suite 445,San Antonio ,TX,(210) 679-4879,(210) 247-6199,"['Educational Services', 'Health Care and Social Assistance', 'Professional Scientific and Technical Services', 'Administrative and Support and Waste Management and Remediation Services']",TRUE,TRUE,FALSE,https://vetbiz.va.gov/sdvosb_large.png
Executive  Solutions Group LLC,117336218,elijah.santiago@execsolutionsgroup.com,https://www.execsolutionsgroup.com,2-Mar-20,2-Mar-23,2018,11334 Eagle Tree, ,San Antonio ,TX,(419) 277-4684,,"['Professional Scientific and Technical Services', 'Administrative and Support and Waste Management and Remediation Services']",FALSE,FALSE,FALSE,https://vetbiz.va.gov/sdvosb_large.png
Federal Medical Services Inc.,133375514,ceofedmed@gmail.com,http://www.federalmedicalservices.wordpress.com,4-Dec-20,4-Dec-23,,12915 Jones Maltsberger,Suite 101,San Antonio ,TX,(210) 601-2143,(210) 495-3302,"['Professional Scientific and Technical Services', 'Administrative and Support and Waste Management and Remediation Services']",TRUE,FALSE,FALSE,https://vetbiz.va.gov/sdvosb_large.png
First Champion LLC,84593686,nfjenkins00@gmail.com,,9-Jul-20,9-Jul-23,2013,1721 S. Ww White Road ,Suite 120-29,San Antonio ,TX,(225) 588-3882,(225) 588-3882,"['Professional Scientific and Technical Services', 'Administrative and Support and Waste Management and Remediation Services']",TRUE,FALSE,FALSE,https://vetbiz.va.gov/sdvosb_large.png
Force Asset Management LLC,81037763,george.wilburn@forceam.com,http://www.forceam.com,3-Jan-19,3-Jan-22,2017,21750 HaRoady Oak BoulevaRoad ,Suite 102,San Antonio ,TX,(210) 563-1276,,"['Professional Scientific and Technical Services', 'Administrative and Support and Waste Management and Remediation Services']",TRUE,FALSE,FALSE,https://vetbiz.va.gov/sdvosb_large.png
Fountain of Peace Counseling PLLC,113597836,sabizness17@yahoo.com,https://fountainofpeacepllc.com,17-Apr-20,17-Apr-23,2019,7475 Callaghan Road ,Suite 109,San Antonio ,TX,(210) 253-9000,,['Health Care and Social Assistance'],FALSE,TRUE,FALSE,https://vetbiz.va.gov/sdvosb_large.png
Fox Truck World LLC,52278242,romie@foxtruckworld.com,http://www.foxtruckworld.com,29-Mar-19,29-Mar-22,2010,965 F.M. 1516 S., ,San Antonio ,TX,(210) 648-1660,(866) 388-6220,['Other Services'],FALSE,FALSE,FALSE,https://vetbiz.va.gov/sdvosb_large.png
Frontline Support Solutions LLC,962362930,jperez@frontline1.com,http://www.frontline1.com,13-Jun-19,13-Jun-22,2010,9504 I.H. 35 North,Suite 204  ,San Antonio ,TX,(210) 253-2400,(888) 795-0944,"['Wholesale Trade', 'Manufacturing', 'Utilities', 'Administrative and Support and Waste Management and Remediation Services', 'Transportation and Warehousing', 'Professional Scientific and Technical Services', 'Other Services', 'Construction', 'Real Estate Rental and Leasing']",TRUE,FALSE,TRUE,https://vetbiz.va.gov/sdvosb_large.png
Full-Range Leadership Consulting Firm Inc.,80989059,drcarzellmiddleton@full-rangeleadership.com,https://full-rangeleadership.com,7-Mar-19,7-Mar-22,2017,Encino Park Station,20403 Encino Ledge #593024  ,San Antonio ,TX,(571) 550-0946,,"['Educational Services', 'Professional Scientific and Technical Services']",TRUE,TRUE,TRUE,https://vetbiz.va.gov/sdvosb_large.png
G.A.P. Lighthouse Medical Equipment and Repairs LLC,79840202,gapmobility@gmail.com,,16-Jan-20,16-Jan-23,2015,5504 Bandera Road ,Suite. 601,San Antonio ,TX,(210) 627-5570,,"['Health Care and Social Assistance', 'Wholesale Trade']",TRUE,FALSE,FALSE,https://vetbiz.va.gov/sdvosb_large.png
G5S Consulting Group LLC,81231325,gregory.stevenson@g5sconsultingllc.com,https://g5sconsultinggroupllc.com,22-Oct-18,22-Oct-21,2018,141 Stone Hill Drive, ,San Antonio ,TX,(210) 371-0202,,['Professional Scientific and Technical Services'],TRUE,FALSE,TRUE,https://vetbiz.va.gov/sdvosb_large.png
GBK Consultants LLC,79770003,gblackman@gbkconsultllc.com,http://www.gbkconsultllc.com,29-Mar-19,29-Mar-22,2014,1142 TetfoRoad, ,San Antonio ,TX,(210) 740-3883,(866) 376-9878,"['Professional Scientific and Technical Services', 'Administrative and Support and Waste Management and Remediation Services']",TRUE,FALSE,TRUE,https://vetbiz.va.gov/sdvosb_large.png
Genesis Concepts & Consultants  LLC,29272973,gregory.hudson@genconcepts.com,http://www.genconcepts.com,19-Jul-19,19-Jul-22,2002,1777 N.E. Loop 410,Suite 1009  ,San Antonio ,TX,(210) 451-5100,(210) 451-5102,"['Information', 'Wholesale Trade', 'Arts Entertainment and Recreation', 'Administrative and Support and Waste Management and Remediation Services', 'Professional Scientific and Technical Services', 'Educational Services', 'Health Care and Social Assistance']",TRUE,FALSE,TRUE,https://vetbiz.va.gov/sdvosb_large.png
Greyson Professional Services Inc.,105092478,jdixon@greysonps.com,,13-Sep-19,13-Sep-22,2019,25935 Symphonic Hl, ,San Antonio ,TX,(210) 833-6338,,"['Health Care and Social Assistance', 'Professional Scientific and Technical Services']",TRUE,FALSE,FALSE,https://vetbiz.va.gov/sdvosb_large.png
Guardian Premier Solutions LLC,18364978,doug@gpscorps.com,https://www.gpscorps.com,29-Aug-19,29-Aug-22,2009,333 Valley Hi Drive,Suite 2203  ,San Antonio ,TX,(210) 870-9077,,"['Arts Entertainment and Recreation', 'Retail Trade', 'Professional Scientific and Technical Services', 'Educational Services', 'Health Care and Social Assistance']",TRUE,FALSE,FALSE,https://vetbiz.va.gov/sdvosb_large.png
Hartfield Consulting LLC,117840882,hcveteranpost@gmail.com,http://www.hcpostproduction.com,3-Mar-21,3-Mar-24,,9926 Balboa Island, ,San Antonio ,TX,(888)789-4674,,"['Information', 'Administrative and Support and Waste Management and Remediation Services', 'Arts Entertainment and Recreation', 'Professional Scientific and Technical Services', 'Educational Services', 'Other Services']",TRUE,FALSE,FALSE,https://vetbiz.va.gov/sdvosb_large.png
Haynes Marketing & Associates LLC,830250952,james@haynesmarketing.net,,7-Dec-20,7-Dec-23,,3918 Naco Perrin BoulevaRoad,Suite 101  ,San Antonio ,TX,(210) 803-7625,,"['Professional Scientific and Technical Services', 'Administrative and Support and Waste Management and Remediation Services']",TRUE,FALSE,FALSE,https://vetbiz.va.gov/sdvosb_large.png
Health Facility Solutions Company,132786505,michele@hfscompany.com,http://hfscompany.com,1-Apr-21,1-Apr-24,2003,151 Algerita Drive, ,San Antonio ,TX,(210) 881-9714,(210) 881-6808,"['Manufacturing', 'Construction', 'Professional Scientific and Technical Services', 'Administrative and Support and Waste Management and Remediation Services']",TRUE,TRUE,FALSE,https://vetbiz.va.gov/sdvosb_large.png
Hyperion Biotechnology Inc.,63027986,kkalns@hyperionbiotechnology.com,http://www.hyperionbiotechnology.com,3-Jan-20,3-Jan-23,1998,13302 Langtry Street, ,San Antonio ,TX,(210) 493-7452,(210) 342-2005,"['Educational Services', 'Health Care and Social Assistance', 'Professional Scientific and Technical Services', 'Administrative and Support and Waste Management and Remediation Services']",TRUE,TRUE,FALSE,https://vetbiz.va.gov/sdvosb_large.png
Information Technology Future (iTF) LLC,79721464,fred.owens@informationtechfuture.com,http://informationtechfuture.com,12-Jun-18,12-Jun-21,2014,134 E. Skyview Drive, ,San Antonio ,TX,(210) 435-3631,,"['Information', 'Professional Scientific and Technical Services']",TRUE,FALSE,FALSE,https://vetbiz.va.gov/sdvosb_large.png
Innocon Tech LLC,81259589,innocontech@gmail.com,,19-Feb-19,19-Feb-22,2018,3535 Running Ranch, ,San Antonio ,TX,(210) 363-9333,,"['Information', 'Professional Scientific and Technical Services', 'Administrative and Support and Waste Management and Remediation Services']",TRUE,FALSE,TRUE,https://vetbiz.va.gov/sdvosb_large.png
Instant Data Technologies Inc.,127139611,bramcharan@indatatech.com,http://www.indatatech.com,20-Mar-19,20-Mar-22,2000,85 N.E. Loop 410,Suite 405  ,San Antonio ,TX,(210) 344-0012,(210) 344-3540,"['Wholesale Trade', 'Manufacturing', 'Administrative and Support and Waste Management and Remediation Services', 'Professional Scientific and Technical Services', 'Other Services']",TRUE,FALSE,TRUE,https://vetbiz.va.gov/sdvosb_large.png
Integrity Consultants LLC,80680022,briantcoles@gmail.com,,5-Feb-21,5-Feb-24,,7919 Horse Hollow, ,San Antonio ,TX,(832) 877-1492,,"['Manufacturing', 'Retail Trade', 'Wholesale Trade']",FALSE,FALSE,FALSE,https://vetbiz.va.gov/sdvosb_large.png
Interconnect Solutions LLC,117585092,interconnectsolutionsllc@gmail.com,https://interconnectsolutionsllc.com,13-May-21,13-May-24,,118 Broadway Street ,Suite 626,San Antonio ,TX,(210) 842-9807,,"['Other Services', 'Construction', 'Information', 'Professional Scientific and Technical Services']",TRUE,FALSE,FALSE,https://vetbiz.va.gov/sdvosb_large.png
ITI Solutions Inc.,42328471,jrpagan@iti-solutionsinc.com,http://www.ITI-SolutionsInc.com,10-May-19,10-May-22,2001,14603 Huebner Road,Suite 2402,San Antonio ,TX,(210) 733-5744,(210) 493-2235,"['Educational Services', 'Other Services', 'Professional Scientific and Technical Services', 'Administrative and Support and Waste Management and Remediation Services']",TRUE,FALSE,TRUE,https://vetbiz.va.gov/sdvosb_large.png
J E Sinn Consulting LLC,80586850,joel.jesconsulting@gmail.com,,11-Sep-19,11-Sep-22,2017,P.O. Box 780824, ,San Antonio ,TX,(808) 330-7430,,"['Construction', 'Mining', 'Professional Scientific and Technical Services', 'Administrative and Support and Waste Management and Remediation Services']",TRUE,FALSE,FALSE,https://vetbiz.va.gov/sdvosb_large.png
J&A Business Solutions LLC,81161216,info@jabs-llc.com,http://www.Jabs-llc.com,9-Oct-18,9-Oct-21,2018,5318 Freesia Spring, ,San Antonio ,TX,(210) 538-1775,,"['Construction', 'Information', 'Professional Scientific and Technical Services', 'Administrative and Support and Waste Management and Remediation Services']",TRUE,FALSE,FALSE,https://vetbiz.va.gov/sdvosb_large.png
J. L. Bass Enterprise LLC,63190716,jlbass47@jlbassconstruction.com,,20-Apr-20,20-Apr-23,2005,9827 Potranco Road ,Suite 103-191,San Antonio ,TX,(210) 910-7574,,"['Construction', 'Real Estate Rental and Leasing', 'Administrative and Support and Waste Management and Remediation Services']",TRUE,FALSE,FALSE,https://vetbiz.va.gov/sdvosb_large.png
Jackie L. Gorman,615352049,jackie.gorman@ivyconsultingservices.com,,9-Jan-19,9-Jan-22,2004,4928 Beck Road, ,San Antonio ,TX,(210) 648-3339,,['Professional Scientific and Technical Services'],TRUE,TRUE,TRUE,https://vetbiz.va.gov/sdvosb_large.png
Jade Wolf Operations LLC,117000036,admin@jwolfops.com,http://www.jwolfops.com,16-Jun-20,16-Jun-23,2018,134 E. Mistletoe Avenue,Suite 210,San Antonio ,TX,(210) 596-4122,,"['Accommodation and Food Services', 'Health Care and Social Assistance', 'Professional Scientific and Technical Services', 'Administrative and Support and Waste Management and Remediation Services']",TRUE,FALSE,FALSE,https://vetbiz.va.gov/sdvosb_large.png
Jermaine L. Coleman,117551834,cge242008@outlook.com,https://www.colemanglobalenterprises.com,14-Jul-20,14-Jul-23,2020,6007 Caramel Way, ,San Antonio ,TX,(210)884-2563,,"['Wholesale Trade', 'Manufacturing', 'Administrative and Support and Waste Management and Remediation Services', 'Arts Entertainment and Recreation', 'Professional Scientific and Technical Services', 'Educational Services', 'Construction', 'Health Care and Social Assistance']",TRUE,FALSE,FALSE,https://vetbiz.va.gov/sdvosb_large.png
Jlat Aero Group LLC,81161355,macosta@jlataero.com,http://www.jlataero.com,11-Oct-18,11-Oct-21,2018,11238 Palomino Bend,,San Antonio ,TX,(210) 827-1887,(210) 688-0345,"['Agriculture Forestry Fishing and Hunting', 'Transportation and Warehousing', 'Professional Scientific and Technical Services', 'Administrative and Support and Waste Management and Remediation Services']",TRUE,FALSE,TRUE,https://vetbiz.va.gov/sdvosb_large.png
Joch Enterprises LLC,78644983,jose@jochcc.com,http://www.jochcc.comindex.html,24-Jan-20,24-Jan-23,2012,5222 Sagerock Pass, ,San Antonio ,TX,(210) 573-7561,,"['Manufacturing', 'Administrative and Support and Waste Management and Remediation Services', 'Transportation and Warehousing', 'Other Services', 'Construction']",TRUE,FALSE,FALSE,https://vetbiz.va.gov/sdvosb_large.png
Johnson Venture Management Solutions Inc.,80787897,margiejohnson@jvmsolutions.net,http://www.jvmsolutions.net,10-Jun-20,10-Jun-23,2014,17806 IH 10 W. ,Suite 300,San Antonio ,TX,(678) 300-4119,(706) 604-4725,"['Professional Scientific and Technical Services', 'Administrative and Support and Waste Management and Remediation Services']",FALSE,TRUE,TRUE,https://vetbiz.va.gov/sdvosb_large.png
Jose Barrios,81102309,jbarrios_81@yahoo.com,,7-Aug-18,7-Aug-21,2018,8639 Fairhaven St ,Apartment 2409,San Antonio ,TX,(210) 625-0131,,"['Construction', 'Professional Scientific and Technical Services']",TRUE,FALSE,TRUE,https://vetbiz.va.gov/sdvosb_large.png
Kaeppel Consulting LLC,831039909,scott@kaeppelconsulting.com,http://www.kaeppelconsulting.com,19-Jan-21,19-Jan-24,2009,1141 N Loop 1604 E,"Number 105, Unit 110  ",San Antonio ,TX,(210) 326-1137,(267) 284-4276,"['Educational Services', 'Professional Scientific and Technical Services', 'Administrative and Support and Waste Management and Remediation Services']",FALSE,FALSE,FALSE,https://vetbiz.va.gov/sdvosb_large.png
KBPI LLC,829359376,jerry@leanproviders.com,https://www.leanproviders.com,5-Sep-19,5-Sep-22,2015,1327 Whitby Tower, ,San Antonio ,TX,(254) 217-3160,,['Professional Scientific and Technical Services'],FALSE,FALSE,TRUE,https://vetbiz.va.gov/sdvosb_large.png
KounterActions LLC,80164836,zzkyamas@gmail.com,http://www.kounteractions.com,28-Mar-19,28-Mar-22,2016,11754 Quailbrook, ,San Antonio ,TX,(210) 385-4192,(210) 267-1692,"['Educational Services', 'Information', 'Professional Scientific and Technical Services', 'Administrative and Support and Waste Management and Remediation Services']",TRUE,FALSE,TRUE,https://vetbiz.va.gov/sdvosb_large.png
L.J Pen-Test Consulting LLC,81509412,tata_joshua@yahoo.com,,5-Sep-19,5-Sep-22,2018,10543 Dugas Dr, ,San Antonio ,TX,(505) 920-0204,,"['Professional Scientific and Technical Services', 'Administrative and Support and Waste Management and Remediation Services']",TRUE,FALSE,TRUE,https://vetbiz.va.gov/sdvosb_large.png
Laredo Technical Services Inc.,808832591,joseph@laredotechnical.com,http://www.laredotechnical.com,15-Jan-21,15-Jan-24,2007,22011 Roan Bluff, ,San Antonio ,TX,(210) 705-2904,(210) 247-9534,"['Wholesale Trade', 'Administrative and Support and Waste Management and Remediation Services', 'Professional Scientific and Technical Services', 'Educational Services', 'Other Services', 'Health Care and Social Assistance']",TRUE,FALSE,TRUE,https://vetbiz.va.gov/sdvosb_large.png
Lavish Life Technologies LLC,49986331,josh@lavishlife.technology,https://www.lavishlife.technology,1-Feb-21,1-Feb-24,,11335 Babcock Bend, ,San Antonio ,TX,(904) 229-8223,,"['Educational Services', 'Professional Scientific and Technical Services']",FALSE,FALSE,FALSE,https://vetbiz.va.gov/sdvosb_large.png
Leaning Forward Technologies LLC,32601496,tony.cannon@lfconsultingllc.com,http://www.lfconsultingllc.com,22-Jun-18,22-Jun-21,2011,19950 Huebner Road ,Unit 1710,San Antonio ,TX,(210) 912-8448,(210) 912-8448,"['Educational Services', 'Information', 'Professional Scientific and Technical Services', 'Administrative and Support and Waste Management and Remediation Services']",FALSE,FALSE,FALSE,https://vetbiz.va.gov/sdvosb_large.png
Links Contracting Partners LLC,15112751,linkscontractingllc@gmail.com,,9-Feb-21,9-Feb-24,,18722 Rogers Pass, ,San Antonio ,TX,(210) 289-2238,,"['Administrative and Support and Waste Management and Remediation Services', 'Professional Scientific and Technical Services', 'Educational Services', 'Construction', 'Health Care and Social Assistance']",TRUE,FALSE,TRUE,https://vetbiz.va.gov/sdvosb_large.png
LiVion Technology LLC,78794145,jim.dycus@liviontechnology.com,http://www.liviontechnology.com,22-Apr-21,22-Apr-24,2013,802 E Quincy ,Suite 100,San Antonio ,TX,(210) 889-7380,(210) 855-5876,"['Educational Services', 'Information', 'Professional Scientific and Technical Services', 'Administrative and Support and Waste Management and Remediation Services']",TRUE,FALSE,FALSE,https://vetbiz.va.gov/sdvosb_large.png
Lugosantiago Enterprise Group LLC,80925892,support@lugosantiagoeg.com,http://www.lugosantiagoeg.com,15-Mar-21,15-Mar-24,2017,14111 Laurel Branch, ,San Antonio ,TX,(210) 324-5475,,"['Educational Services', 'Professional Scientific and Technical Services']",TRUE,FALSE,TRUE,https://vetbiz.va.gov/sdvosb_large.png
Madge's Food Company,74722031,info@madgesfood.com,https://www.madgesfood.com,6-Dec-19,6-Dec-22,2014,503 Chestnut Street, ,San Antonio ,TX,(512) 355-0551,(210) 729-7550,['Manufacturing'],TRUE,FALSE,FALSE,https://vetbiz.va.gov/sdvosb_large.png
Mason Insurance Agency LLC.,117558618,rmason@masoninsuranceagency.net,https://www.masoninsuranceagency.net,5-Aug-20,5-Aug-23,2019,16333 Vance Jackson Road,Apartment 2037  ,San Antonio ,TX,(877) 224-8389,(833) 422-0106,['Finance and Insurance'],TRUE,FALSE,FALSE,https://vetbiz.va.gov/sdvosb_large.png
McGoldrick Construction Services Corporation,113315253,pm@mcgoldrickconstructionservices.com,,5-Mar-19,5-Mar-22,1983,8627 Cinnamon Creek  ,Suite 301,San Antonio ,TX,(210) 690-4585,(210) 690-4587,['Construction'],TRUE,FALSE,FALSE,https://vetbiz.va.gov/sdvosb_large.png
McLaurin LLC,116939817,info@mclaurinllc.com,http://www.mclaurinllc.com,29-May-19,29-May-22,2018,10730 Potranco Road ,Suite 122-263,San Antonio ,TX,(210) 488-1007,(210) 677-6187,"['Professional Scientific and Technical Services', 'Administrative and Support and Waste Management and Remediation Services']",FALSE,FALSE,TRUE,https://vetbiz.va.gov/sdvosb_large.png
MD All Service Solutions Incorporated,117881258,gmitat@mdservice.solutions,,21-Apr-21,21-Apr-24,,9827 Turquoise Place, ,San Antonio ,TX,(740) 563-2274,,"['Arts Entertainment and Recreation', 'Retail Trade', 'Professional Scientific and Technical Services', 'Educational Services', 'Real Estate Rental and Leasing']",TRUE,TRUE,FALSE,https://vetbiz.va.gov/sdvosb_large.png
Mendez Engineering PLLC,78361989,rmendez@mendezengineering.com,http://www.MendezEngineering.com,19-Dec-19,19-Dec-22,2012,12950 Country Parkway ,Suite 120,San Antonio ,TX,(210) 802-0808,,"['Construction', 'Professional Scientific and Technical Services']",TRUE,FALSE,FALSE,https://vetbiz.va.gov/sdvosb_large.png
Mercy Medical Equipment Company,38350351,matt@emercymedical.com,http://www.emercymedical.com,29-Jan-21,29-Jan-24,,1303 S. Comal, ,San Antonio ,TX,(210) 224-9714,(210) 224-9812,"['Manufacturing', 'Retail Trade', 'Health Care and Social Assistance', 'Wholesale Trade']",FALSE,FALSE,FALSE,https://vetbiz.va.gov/sdvosb_large.png
MeriTec Services Inc.,125136304,andrew.jett@meritecservices.com,http://www.meritecservices.com,28-Aug-20,28-Aug-23,2002,12770 Cimarron Path ,Suite 118,San Antonio ,TX,(210) 694-4635,(210) 694-4633,"['Information', 'Wholesale Trade', 'Administrative and Support and Waste Management and Remediation Services', 'Professional Scientific and Technical Services', 'Educational Services']",FALSE,FALSE,FALSE,https://vetbiz.va.gov/sdvosb_large.png
Merletti Gonzales & Associates International Security Consultants L.L.C.,84715628,ralph@merlettigonzales.com,http://www.merlettigonzales.com,29-Oct-20,29-Oct-23,2016,106 S. Saint Marys Street,Suite 260  ,San Antonio ,TX,(214) 934-0267,,"['Professional Scientific and Technical Services', 'Administrative and Support and Waste Management and Remediation Services']",FALSE,FALSE,FALSE,https://vetbiz.va.gov/sdvosb_large.png
MH Contracting LLC,80346474,mhcontracting78@yahoo.com,,22-Mar-21,22-Mar-24,,12908 Huntsman Road, ,San Antonio ,TX,(210) 373-1639,,"['Construction', 'Administrative and Support and Waste Management and Remediation Services']",TRUE,FALSE,FALSE,https://vetbiz.va.gov/sdvosb_large.png
MILSpec Logistics LLC,80632687,shan@milspeclogistics.com,http://www.milspeclogistics.com,5-Feb-21,5-Feb-24,2017,303 Myrtle Oak, ,San Antonio ,TX,(210) 391-5602,(877) 292-9353,"['Educational Services', 'Professional Scientific and Technical Services', 'Wholesale Trade']",TRUE,FALSE,TRUE,https://vetbiz.va.gov/sdvosb_large.png
MJKD AND ASSOCIATES INC,806327206,mforsyth@mjkda.com,http://www.mjkda.com,11-Jun-19,11-Jun-22,2008,1635 Adobe Square Dr, ,San Antonio ,TX,(210) 876-4086,(210) 247-9665,"['Educational Services', 'Professional Scientific and Technical Services']",TRUE,FALSE,FALSE,https://vetbiz.va.gov/sdvosb_large.png
MJW Medical Solutions Inc,809092641,mjwmedsol@att.net,http://www.mjwmedicalsolutions.com,8-Aug-19,8-Aug-22,2007,45 N.E. Loop 410 ,Suite 209,San Antonio ,TX,(210) 858-8997,(210) 858-6286,"['Educational Services', 'Health Care and Social Assistance', 'Wholesale Trade']",TRUE,FALSE,TRUE,https://vetbiz.va.gov/sdvosb_large.png
Moose Engineers LLC,26032101,mikeh@mooseengineers.com,http://www.MooseEngineers.com,11-May-20,11-May-23,2018,1344 S. Flores, Suite 203,San Antonio ,TX,(210) 361-1400,,['Professional Scientific and Technical Services'],TRUE,FALSE,FALSE,https://vetbiz.va.gov/sdvosb_large.png
MTM Business Solutions LLC,50915675,sheryl@mtmbizsolutions.com,http://www.mtmbizsolutions.com,12-Jul-19,12-Jul-22,2016,21931 Ruby Run, ,San Antonio ,TX,(210) 309-7709,,['Professional Scientific and Technical Services'],TRUE,TRUE,TRUE,https://vetbiz.va.gov/sdvosb_large.png
My Business Matches Inc.,78608483,info@mybusinessmatches.com,http://www.mybusinessmatches.com,9-May-19,9-May-22,2009,11002 Bowden Cross, ,San Antonio ,TX,(210) 858-7379,,"['Professional Scientific and Technical Services', 'Administrative and Support and Waste Management and Remediation Services']",TRUE,FALSE,TRUE,https://vetbiz.va.gov/sdvosb_large.png
Myles Solutions LLC,117679807,info@mylessolutions.com,,19-Oct-20,19-Oct-23,,14502 Rawhide Way, ,San Antonio ,TX,(210) 323-8763,,"['Transportation and Warehousing', 'Professional Scientific and Technical Services', 'Administrative and Support and Waste Management and Remediation Services']",TRUE,FALSE,FALSE,https://vetbiz.va.gov/sdvosb_large.png
Nationwide Pharmaceutical LLC,79265801,info@nwp-mail.com,http://www.nationwidepharmaceutical.com,9-Oct-18,9-Oct-21,2014,1270 N. Loop 1604 E. ,Suite 1306,San Antonio ,TX,(800) 697-3329,(800) 697-3329,"['Information', 'Wholesale Trade', 'Manufacturing', 'Transportation and Warehousing', 'Retail Trade', 'Professional Scientific and Technical Services', 'Finance and Insurance', 'Health Care and Social Assistance']",TRUE,FALSE,FALSE,https://vetbiz.va.gov/sdvosb_large.png
OJH Services Inc.,79125160,oscarhernandez@icloud.com,http://www.MSOT.us,4-Aug-20,4-Aug-23,2007,P.O. Box 782576, ,San Antonio ,TX,(210) 838-5878,(877) 890-0383,"['Manufacturing', 'Wholesale Trade']",FALSE,FALSE,FALSE,https://vetbiz.va.gov/sdvosb_large.png
Omega Flooring Inc. ,14933175,bvcg1@msn.com,,8-Jan-21,8-Jan-24,,2410 Cerca Madera, ,San Antonio ,TX,(210) 413-8550,,"['Construction', 'Retail Trade']",TRUE,FALSE,FALSE,https://vetbiz.va.gov/sdvosb_large.png
One Source IT LLC,622416548,vetbiz@onesourceit.biz,http://OneSourceIT.biz,29-Jul-19,29-Jul-22,2012,14410 Perchin Street, ,San Antonio ,TX,(210) 854-9900,,"['Information', 'Professional Scientific and Technical Services']",FALSE,FALSE,FALSE,https://vetbiz.va.gov/sdvosb_large.png
Osi Vision LLC,78360754,tony.arevalo@osivision.com,http://www.osivision.com,30-May-18,30-May-21,2011,100 Sandau ,Suite 210,San Antonio ,TX,(210) 907-7125,(210) 907-7232,"['Professional Scientific and Technical Services', 'Administrative and Support and Waste Management and Remediation Services']",FALSE,FALSE,TRUE,https://vetbiz.va.gov/sdvosb_large.png
PetroOps LLC,85324687,lamar.sales@petroopsllc.com,http://www.petroops.com,1-Jun-20,1-Jun-23,2016,8927 Azalea Pointe, ,San Antonio ,TX,(843) 810-9427,,"['Manufacturing', 'Transportation and Warehousing', 'Wholesale Trade']",TRUE,FALSE,FALSE,https://vetbiz.va.gov/sdvosb_large.png
Portfolio Consulting LLC,800016409,dottie@portfolioconsultingllc.com,http://www.Portfolioconsultingllc.com,25-Oct-18,25-Oct-21,2007,2714 Wonderview Dr, ,San Antonio ,TX,(267) 257-8089,(210) 474-6652,"['Educational Services', 'Professional Scientific and Technical Services', 'Administrative and Support and Waste Management and Remediation Services']",TRUE,TRUE,FALSE,https://vetbiz.va.gov/sdvosb_large.png
Potential Realized LLC,41318052,dana@whatsyourpr.com,http://whatsyourpr.com,7-Feb-19,7-Feb-22,2017,P.O. Box 593061, ,San Antonio ,TX,(210) 439-0935,,"['Other Services', 'Professional Scientific and Technical Services']",TRUE,TRUE,FALSE,https://vetbiz.va.gov/sdvosb_large.png
Precision Scheduling Consultants LLC,966119377,lg@precisionscheduling.com,http://www.precisionschedulingconsultants.com,18-Mar-20,18-Mar-23,2010,10715 Gulfdale St ,Suite 260,San Antonio ,TX,(210) 693-9475,(877) 565-9955,['Professional Scientific and Technical Services'],TRUE,FALSE,FALSE,https://vetbiz.va.gov/sdvosb_large.png
Prime Universal Group LLC,965079424,gabriel.hilario@primeuniversal.com,http://www.primeuniversal.com,17-Jun-19,17-Jun-22,2010,400 N. Loop 1604 E.,Suite 120  ,San Antonio ,TX,(210) 319-3193,(210) 568-4446,"['Administrative and Support and Waste Management and Remediation Services', 'Transportation and Warehousing', 'Professional Scientific and Technical Services', 'Educational Services', 'Construction']",TRUE,FALSE,TRUE,https://vetbiz.va.gov/sdvosb_large.png
Prosperitus Solutions LLC,969751838,ghernandez@prosperitussolutions.com,http://www.prosperitussolutions.com,31-Jul-19,31-Jul-22,2011,1014 Peabody Avenue, ,San Antonio ,TX,(210) 468-2660,(210) 247-9347,"['Administrative and Support and Waste Management and Remediation Services', 'Transportation and Warehousing', 'Professional Scientific and Technical Services', 'Educational Services', 'Health Care and Social Assistance']",TRUE,TRUE,TRUE,https://vetbiz.va.gov/sdvosb_large.png
Quality Services International LLC,1735856,francisco.arevalo@qsillc.com,http://www.qsillc.com,22-Jul-19,22-Jul-22,2000,219 N. Alamo ,Suite 200,San Antonio ,TX,(210) 212-8784,(210) 212-8790,"['Construction', 'Utilities', 'Accommodation and Food Services', 'Administrative and Support and Waste Management and Remediation Services']",TRUE,FALSE,TRUE,https://vetbiz.va.gov/sdvosb_large.png
R3D Realty LLC,117766503,r3drealty@gmail.com,,26-Feb-21,26-Feb-24,,211 Zornia Drive, ,San Antonio ,TX,(210) 294-4844,,"['Other Services', 'Health Care and Social Assistance']",TRUE,FALSE,FALSE,https://vetbiz.va.gov/sdvosb_large.png
RC4Vets LLC,117222735,warren.beck@rc4vets.com, ,2-Jun-20,2-Jun-23,2019,1004 Duke Road ,Suite 101b,San Antonio ,TX,(901) 485-1008,(901) 284-0295,"['Educational Services', 'Professional Scientific and Technical Services']",TRUE,FALSE,FALSE,https://vetbiz.va.gov/sdvosb_large.png
RCK Environmental Services LLC,80577472,rkull@rckes.com,https://www.rckes.com,3-Feb-21,3-Feb-24,,1604 Tracy Drive, ,San Antonio ,TX,(757) 755-6259,(830) 714-4961,"['Professional Scientific and Technical Services', 'Administrative and Support and Waste Management and Remediation Services']",FALSE,FALSE,FALSE,https://vetbiz.va.gov/sdvosb_large.png
Red Knight L.L.C.,967035929,red.thomas@redknightllc.com,,21-Dec-18,21-Dec-21,2011,12126 EdwaRoad Conrad, ,San Antonio ,TX,(210) 880-5777,,"['Information', 'Wholesale Trade', 'Professional Scientific and Technical Services', 'Educational Services', 'Other Services']",TRUE,FALSE,FALSE,https://vetbiz.va.gov/sdvosb_large.png
RegeniSource LLC,80511300,rod.rodriguez@regenisource.com,http://regenisourcegov.com,21-Apr-20,21-Apr-23,2017,3331 Monarch, ,San Antonio ,TX,(210) 971-7542,(210) 973-7582,"['Manufacturing', 'Wholesale Trade']",TRUE,FALSE,TRUE,https://vetbiz.va.gov/sdvosb_large.png
Remwerks LLC,79212470,info@remwerks.com,http://www.remwerks.com,6-May-20,6-May-23,2013,7204 Seidel Road, ,San Antonio ,TX,(210) 320-1285,,"['Professional Scientific and Technical Services', 'Administrative and Support and Waste Management and Remediation Services']",TRUE,FALSE,FALSE,https://vetbiz.va.gov/sdvosb_large.png
Richard Holmes,116556931,richnsonwc210@gmail.com,,4-Jun-18,4-Jun-21,2018,7700 Ingram Road,Suite 303,San Antonio ,TX,(210) 800-4346,,"['Other Services', 'Administrative and Support and Waste Management and Remediation Services']",TRUE,FALSE,FALSE,https://vetbiz.va.gov/sdvosb_large.png
RM Coding Solutions LLC,79546543,vet@rmcodingsolutions.com,https://rmcodingsolutions.com,16-Nov-20,16-Nov-23,2014,4 Stirman Way, ,San Antonio ,TX,(210) 749-5232,,['Professional Scientific and Technical Services'],TRUE,FALSE,TRUE,https://vetbiz.va.gov/sdvosb_large.png
RM Ultimate Construction LLC,791029767,rmuc@sbcglobal.net,,11-Feb-21,11-Feb-24,2007,1716 S. San Marcos ,Unit 205,San Antonio ,TX,(210) 223-4335,(210) 223-4335,"['Construction', 'Administrative and Support and Waste Management and Remediation Services']",TRUE,FALSE,FALSE,https://vetbiz.va.gov/sdvosb_large.png
Ruck Up Recruiting LLC,116917542,amiranda@ruckuprecruiting.com,https://www.ruckuprecruiting.com,4-Feb-19,4-Feb-22,2018,10315 Briar Rose, ,San Antonio ,TX,(915) 873-5940,,['Administrative and Support and Waste Management and Remediation Services'],TRUE,FALSE,TRUE,https://vetbiz.va.gov/sdvosb_large.png
Sandoval Technology Solutions LLC,78652601,info@sandtechsolutions.com,http://www.sandtechsolutions.com,27-Jul-18,27-Jul-21,2012,4238 Gage Crossing, ,San Antonio ,TX,(210) 912-6391,(210) 855-2994,"['Educational Services', 'Information', 'Professional Scientific and Technical Services', 'Administrative and Support and Waste Management and Remediation Services']",TRUE,FALSE,TRUE,https://vetbiz.va.gov/sdvosb_large.png
Secure Apps LLC,80695446,marcus.hervey@secureapps.com,http://www.secureapps.com,2-Dec-20,2-Dec-23,,208 Tuttle Road, ,San Antonio ,TX,(210) 570-2105,-,"['Educational Services', 'Information', 'Professional Scientific and Technical Services', 'Administrative and Support and Waste Management and Remediation Services']",TRUE,FALSE,FALSE,https://vetbiz.va.gov/sdvosb_large.png
Silicon Warriors Inc,117455434,vinod@siliconwarriorsinc.com,,10-Sep-20,10-Sep-23,2019,454 Soledad Street ,Suite 203d,San Antonio ,TX,(786) 374-8154,,['Professional Scientific and Technical Services'],TRUE,FALSE,FALSE,https://vetbiz.va.gov/sdvosb_large.png
Silotech Group Inc,828582531,ttremont@silotechgroup.com,http://www.silotechgroup.com,2-Jun-20,2-Jun-23,2008,19026 Ridgewood Parkway ,Suite 118,San Antonio ,TX,(210) 569-0953,(210) 569-0954,"['Wholesale Trade', 'Administrative and Support and Waste Management and Remediation Services', 'Professional Scientific and Technical Services', 'Educational Services', 'Health Care and Social Assistance']",TRUE,TRUE,TRUE,https://vetbiz.va.gov/sdvosb_large.png
Sky Soldier Drones LLC,81080550,joe.baker@skysoldierdrones.com,https://www.skysoldierdrones.com,26-Apr-19,26-Apr-22,2017,21019 Us Highway 281 North ,"Suite 830, Unit 18",San Antonio ,TX,(210) 627-5671,(210) 404-2329,['Professional Scientific and Technical Services'],TRUE,FALSE,FALSE,https://vetbiz.va.gov/sdvosb_large.png
Smith Gordon Nolan,117542516,nsmith@ifrida.com,http://www.ifrida.com,26-Jun-20,26-Jun-23,2020,1803 Mountjoy Street, ,San Antonio ,TX,(972) 880-5655,,"['Manufacturing', 'Wholesale Trade']",FALSE,FALSE,FALSE,https://vetbiz.va.gov/sdvosb_large.png
Solutio Environmental Inc.,27064061,mcclain@solutioenv.com,http://www.solutioenv.com,20-Jun-19,20-Jun-22,2008,13003 Jones Maltsberger Road, ,San Antonio ,TX,(210) 749-7000,,"['Professional Scientific and Technical Services', 'Administrative and Support and Waste Management and Remediation Services']",TRUE,FALSE,FALSE,https://vetbiz.va.gov/sdvosb_large.png
Stephen D Pullum,117967722,spullum@gmail.com,,21-Apr-21,21-Apr-24,,18211 BulveRoade Road ,Unit 2305,San Antonio ,TX,(903) 930-8814,,['Professional Scientific and Technical Services'],TRUE,FALSE,FALSE,https://vetbiz.va.gov/sdvosb_large.png
STRK SOLUTIONS LIMITED LLC,20288370,steviestephens@strk.solutions,,21-May-20,21-May-23,2018,11623 CaRoadinal Sky, ,San Antonio ,TX,(210) 906-5856,,"['Manufacturing', 'Wholesale Trade']",TRUE,FALSE,TRUE,https://vetbiz.va.gov/sdvosb_large.png
TBC American Enterprise Inc.,77626543,wbrown@tbcsatx.com,,20-Oct-20,20-Oct-23,2018,3410 Pinnacle Drive, ,San Antonio ,TX,(434) 426-3690,,"['Manufacturing', 'Health Care and Social Assistance', 'Professional Scientific and Technical Services', 'Wholesale Trade']",TRUE,FALSE,FALSE,https://vetbiz.va.gov/sdvosb_large.png
Texas Safety Solutions Limited Liability Company,52124964,zachary.northcutt@txsafetysolutions.com,https://txsafetysolutions.com,28-Jun-19,28-Jun-22,2017,8303 Lajitas Bnd, ,San Antonio ,TX,(903) 261-8396,,"['Professional Scientific and Technical Services', 'Administrative and Support and Waste Management and Remediation Services']",TRUE,FALSE,FALSE,https://vetbiz.va.gov/sdvosb_large.png
Texas Velocity Enterprises LLC,965727055,drichardson@poweredbyvelocity.com,http://www.poweredbyvelocity.com,27-Feb-19,27-Feb-22,2010,426 Seguin Street, ,San Antonio ,TX,(410) 279-0927,(410) 280-4757,"['Manufacturing', 'Construction', 'Utilities', 'Professional Scientific and Technical Services']",TRUE,FALSE,FALSE,https://vetbiz.va.gov/sdvosb_large.png
The Ruiz Corp. L.L.C.,133601612,demetrio@aztech-engineering.com,http://www.aztech-engineering.com,2-May-19,2-May-22,2003,1846 Lockhill Selma,Suite 101  ,San Antonio ,TX,(210) 222-1970,(210) 222-2004,"['Construction', 'Real Estate Rental and Leasing', 'Professional Scientific and Technical Services', 'Administrative and Support and Waste Management and Remediation Services']",TRUE,FALSE,TRUE,https://vetbiz.va.gov/sdvosb_large.png
Thomas Terrance,80476895,tamarancetech@outlook.com,,21-Oct-20,21-Oct-23,2019,578 Sterling Street, ,San Antonio ,TX,(210) 789-5079,(210) 855-6911,"['Educational Services', 'Professional Scientific and Technical Services']",TRUE,TRUE,FALSE,https://vetbiz.va.gov/sdvosb_large.png
Tijerina Construction LLC,930253922,henry.tijerina.jr@gmail.com,,20-May-20,20-May-23,2001,15577 Rosa Street, ,San Antonio ,TX,(210) 884-5910,,"['Manufacturing', 'Construction', 'Administrative and Support and Waste Management and Remediation Services']",TRUE,FALSE,TRUE,https://vetbiz.va.gov/sdvosb_large.png
TOBIN Engineers LLC,117449128,tflinn@tobinengineers.com,http://www.tobinengineers.com,24-Jun-20,24-Jun-23,2019,603 Walnut Hill Street, ,San Antonio ,TX,(512) 619-7353,,"['Construction', 'Health Care and Social Assistance', 'Professional Scientific and Technical Services']",TRUE,FALSE,FALSE,https://vetbiz.va.gov/sdvosb_large.png
Today's Solutions LLC,80152323,chris.amaker@todayssolutions.net,,24-May-19,24-May-22,2015,2313 Lockhill-Selma,Suite 180  ,San Antonio ,TX,(210) 607-0228,,"['Professional Scientific and Technical Services', 'Finance and Insurance']",TRUE,FALSE,TRUE,https://vetbiz.va.gov/sdvosb_large.png
Valor United LLC.,80568856,gene.espino@valorunitedllc.com,,22-Jul-20,22-Jul-23,2017,3706 Weir Avenue,Apartment B,San Antonio ,TX,(210) 201-2834,,['Administrative and Support and Waste Management and Remediation Services'],TRUE,FALSE,TRUE,https://vetbiz.va.gov/sdvosb_large.png
Van Nielsen Healthcare Consulting LLC,117681316,sroberts21@satx.rr.com,,28-Dec-20,28-Dec-23,,17 Trophy Ridge, ,San Antonio ,TX,(210) 823-0561,,['Health Care and Social Assistance'],TRUE,FALSE,FALSE,https://vetbiz.va.gov/sdvosb_large.png
Vela Group LLC,79832543,joe.vela@velagroupinc.com,http://www.velagroupinc.com,13-May-19,13-May-22,2015,4007 Mccullough Ave,Suite 462  ,San Antonio ,TX,(210) 548-4264,,"['Construction', 'Administrative and Support and Waste Management and Remediation Services']",TRUE,FALSE,TRUE,https://vetbiz.va.gov/sdvosb_large.png
Velocity/CFM JV LLC,79885482,drichardson@poweredbyvelocity.com,,6-May-19,6-May-22,2015,426 Seguin Street, ,San Antonio ,TX,(410) 279-0927,,"['Construction', 'Professional Scientific and Technical Services', 'Administrative and Support and Waste Management and Remediation Services']",TRUE,FALSE,FALSE,https://vetbiz.va.gov/sdvosb_large.png
VETEK Solutions LLC,80194796,fred.casillas@aci-sdvob.com,http://www.aci-sdvob.com,5-Apr-19,5-Apr-22,2016,10205 Oasis Street,Suite 220  ,San Antonio ,TX,(210) 829-8560,(210) 417-4110,['Professional Scientific and Technical Services'],TRUE,FALSE,TRUE,https://vetbiz.va.gov/sdvosb_large.png
Vetranspro  LLC,80556035,ghamlin@vetranspro.com,,11-Mar-20,11-Mar-23,2017,14402 Palomino Place, ,San Antonio ,TX,(919) 738-5089,,"['Manufacturing', 'Transportation and Warehousing']",TRUE,FALSE,FALSE,https://vetbiz.va.gov/sdvosb_large.png
VF Services LLC,81106238,drichardson@poweredbyvelocity.com,,19-Mar-21,19-Mar-24,2018,10450 Sentinel Street, ,San Antonio ,TX,(410) 279-0927,,"['Construction', 'Health Care and Social Assistance']",TRUE,FALSE,FALSE,https://vetbiz.va.gov/sdvosb_large.png
Victor Stansberry Sr.,967481529,vtberry@gmail.com,,11-Aug-20,11-Aug-23,2011,1777 Ne Loop 410,Suite 600  ,San Antonio ,TX,(210) 820-2651,,['Professional Scientific and Technical Services'],TRUE,FALSE,TRUE,https://vetbiz.va.gov/sdvosb_large.png
Victory Business Solutions LLC,80395928,vbsllc01@gmail.com,,20-Aug-19,20-Aug-22,2016,9314 Wind Talker, ,San Antonio ,TX,(210) 753-3953,,['Administrative and Support and Waste Management and Remediation Services'],TRUE,TRUE,TRUE,https://vetbiz.va.gov/sdvosb_large.png
Vighter LLC,808862705,info@vighter.com,https://www.vighter.com,24-May-19,24-May-22,2005,11324 Sir Winston Street, ,San Antonio ,TX,(210) 774-5393,(888) 408-5586,"['Manufacturing', 'Administrative and Support and Waste Management and Remediation Services', 'Retail Trade', 'Professional Scientific and Technical Services', 'Educational Services', 'Health Care and Social Assistance']",TRUE,FALSE,FALSE,https://vetbiz.va.gov/sdvosb_large.png
Warrior RN LLC,117956329,jeffrey.clark@vsusa.org,,11-May-21,11-May-24,,6609 Blanco Road ,Suite 260,San Antonio ,TX,(210) 633-7411,,['Health Care and Social Assistance'],TRUE,FALSE,FALSE,https://vetbiz.va.gov/sdvosb_large.png
Worldwide Construction Solutions LLC,78705875,wlamar@wcsolutiontx.com,http://www.wcsolutionstx.com,6-Dec-18,6-Dec-21,2009,10410 Perrin Beitel Road ,Unit 34741,San Antonio ,TX,(210) 296-8996,(210) 670-7909,"['Construction', 'Administrative and Support and Waste Management and Remediation Services']",TRUE,FALSE,TRUE,https://vetbiz.va.gov/sdvosb_large.png
Xozus Purchasing LLC,117878792,xozus1234@gmail.com,,12-Mar-21,12-Mar-24,,24515 Merlot Way, ,San Antonio ,TX,(443) 694-7982,,"['Retail Trade', 'Wholesale Trade']",TRUE,FALSE,FALSE,https://vetbiz.va.gov/sdvosb_large.png
Yoshida Solutions LLC,117446001,ay@yoshidasolutions.com,http://www.yoshidasolutions.com,2-Sep-20,2-Sep-23,2020,223 Carolina Street ,Apartment 2,San Antonio ,TX,(850) 543-9787,,"['Wholesale Trade', 'Manufacturing', 'Health Care and Social Assistance', 'Arts Entertainment and Recreation', 'Administrative and Support and Waste Management and Remediation Services', 'Retail Trade', 'Professional Scientific and Technical Services', 'Other Services', 'Construction', 'Mining']",TRUE,FALSE,FALSE,https://vetbiz.va.gov/sdvosb_large.png